start=new Date('2021-09-22T00:00:00.000Z').valueOf();
sats=[{"CENTER_NAME":"EARTH","ECCENTRICITY":"0.00014580","LAUNCH_DATE":"2021-05-26","PERIOD":"95.592","MEAN_ELEMENT_THEORY":"SGP4","SITE":"AFETR","EPHEMERIS_TYPE":"0","OBJECT_TYPE":"PAYLOAD","OBJECT_NAME":"STARLINK-2736","INCLINATION":"53.0551","ELEMENT_SET_NO":"999","ARG_OF_PERICENTER":"60.6248","EPOCH":"2021-09-21T22:00:00.999936","REF_FRAME":"TEME","MEAN_MOTION_DDOT":"0.0000000000000","MEAN_MOTION_DOT":"0.00016704","MEAN_MOTION":"15.06401787","GP_ID":"185190545","FILE":"3122258","PERIAPSIS":"546.198","SEMIMAJOR_AXIS":"6925.343","TIME_SYSTEM":"UTC","CLASSIFICATION_TYPE":"U","NORAD_CAT_ID":"48640","MEAN_ANOMALY":"217.0809","TLE_LINE1":"1 48640U 21044C   21264.91667824  .00016704  00000-0  11376-2 0  9999","DECAY_DATE":null,"REV_AT_EPOCH":"356","RCS_SIZE":"LARGE","APOAPSIS":"548.218","RA_OF_ASC_NODE":"232.9350","COUNTRY_CODE":"US","BSTAR":"0.00113760000000","TLE_LINE2":"2 48640  53.0551 232.9350 0001458  60.6248 217.0809 15.06401787  3561","OBJECT_ID":"2021-044C"},{"ECCENTRICITY":"0.00011890","LAUNCH_DATE":"2021-05-26","CENTER_NAME":"EARTH","SITE":"AFETR","MEAN_ELEMENT_THEORY":"SGP4","PERIOD":"95.592","OBJECT_NAME":"STARLINK-2754","ELEMENT_SET_NO":"999","INCLINATION":"53.0551","EPHEMERIS_TYPE":"0","OBJECT_TYPE":"PAYLOAD","MEAN_MOTION":"15.06404961","GP_ID":"185190653","FILE":"3122258","ARG_OF_PERICENTER":"73.7013","REF_FRAME":"TEME","EPOCH":"2021-09-21T15:20:36.316608","MEAN_MOTION_DDOT":"0.0000000000000","MEAN_MOTION_DOT":"0.00000513","CLASSIFICATION_TYPE":"U","NORAD_CAT_ID":"48641","MEAN_ANOMALY":"286.4107","PERIAPSIS":"546.375","TIME_SYSTEM":"UTC","SEMIMAJOR_AXIS":"6925.333","DECAY_DATE":null,"TLE_LINE1":"1 48641U 21044D   21264.63930922  .00000513  00000-0  53297-4 0  9992","RCS_SIZE":"LARGE","APOAPSIS":"548.022","REV_AT_EPOCH":"1802","TLE_LINE2":"2 48641  53.0551 239.1892 0001189  73.7013 286.4107 15.06404961 18023","BSTAR":"0.00005329700000","OBJECT_ID":"2021-044D","RA_OF_ASC_NODE":"239.1892","COUNTRY_CODE":"US"},{"OBJECT_NAME":"STARLINK-2646","INCLINATION":"53.0540","ELEMENT_SET_NO":"999","EPHEMERIS_TYPE":"0","OBJECT_TYPE":"PAYLOAD","GP_ID":"185190976","MEAN_MOTION":"15.06401337","FILE":"3122258","ARG_OF_PERICENTER":"59.5538","MEAN_MOTION_DDOT":"0.0000000000000","MEAN_MOTION_DOT":"0.00000363","REF_FRAME":"TEME","EPOCH":"2021-09-21T15:40:27.573888","ECCENTRICITY":"0.00013340","LAUNCH_DATE":"2021-05-26","CENTER_NAME":"EARTH","MEAN_ELEMENT_THEORY":"SGP4","SITE":"AFETR","PERIOD":"95.592","RCS_SIZE":"LARGE","APOAPSIS":"548.133","REV_AT_EPOCH":"1802","BSTAR":"0.00004324500000","TLE_LINE2":"2 48642  53.0540 239.1216 0001334  59.5538 300.5582 15.06401337 18027","OBJECT_ID":"2021-044E","COUNTRY_CODE":"US","RA_OF_ASC_NODE":"239.1216","NORAD_CAT_ID":"48642","CLASSIFICATION_TYPE":"U","MEAN_ANOMALY":"300.5582","TIME_SYSTEM":"UTC","SEMIMAJOR_AXIS":"6925.344","PERIAPSIS":"546.286","DECAY_DATE":null,"TLE_LINE1":"1 48642U 21044E   21264.65309692  .00000363  00000-0  43245-4 0  9994"},{"SITE":"AFETR","MEAN_ELEMENT_THEORY":"SGP4","PERIOD":"95.592","ECCENTRICITY":"0.00011180","LAUNCH_DATE":"2021-05-26","CENTER_NAME":"EARTH","MEAN_MOTION":"15.06396388","GP_ID":"185190761","FILE":"3122258","ARG_OF_PERICENTER":"49.9066","EPOCH":"2021-09-21T15:15:17.495424","REF_FRAME":"TEME","MEAN_MOTION_DOT":"-0.00000728","MEAN_MOTION_DDOT":"0.0000000000000","OBJECT_NAME":"STARLINK-2704","INCLINATION":"53.0547","ELEMENT_SET_NO":"999","EPHEMERIS_TYPE":"0","OBJECT_TYPE":"PAYLOAD","DECAY_DATE":null,"TLE_LINE1":"1 48643U 21044F   21264.63561916 -.00000728  00000-0 -29995-4 0  9995","CLASSIFICATION_TYPE":"U","NORAD_CAT_ID":"48643","MEAN_ANOMALY":"310.2021","PERIAPSIS":"546.450","SEMIMAJOR_AXIS":"6925.360","TIME_SYSTEM":"UTC","BSTAR":"-0.00002999500000","TLE_LINE2":"2 48643  53.0547 239.2033 0001118  49.9066 310.2021 15.06396388 18027","OBJECT_ID":"2021-044F","RA_OF_ASC_NODE":"239.2033","COUNTRY_CODE":"US","RCS_SIZE":"LARGE","APOAPSIS":"547.999","REV_AT_EPOCH":"1802"},{"ARG_OF_PERICENTER":"63.8675","MEAN_MOTION_DOT":"0.00001058","MEAN_MOTION_DDOT":"0.0000000000000","REF_FRAME":"TEME","EPOCH":"2021-09-21T15:09:59.151168","GP_ID":"185190225","MEAN_MOTION":"15.06401417","FILE":"3122258","EPHEMERIS_TYPE":"0","OBJECT_TYPE":"PAYLOAD","OBJECT_NAME":"STARLINK-2695","INCLINATION":"53.0557","ELEMENT_SET_NO":"999","PERIOD":"95.592","SITE":"AFETR","MEAN_ELEMENT_THEORY":"SGP4","CENTER_NAME":"EARTH","ECCENTRICITY":"0.00010730","LAUNCH_DATE":"2021-05-26","COUNTRY_CODE":"US","RA_OF_ASC_NODE":"239.2162","TLE_LINE2":"2 48644  53.0557 239.2162 0001073  63.8675 296.2424 15.06401417 18023","BSTAR":"0.00008992300000","OBJECT_ID":"2021-044G","REV_AT_EPOCH":"1802","RCS_SIZE":"LARGE","APOAPSIS":"547.952","TLE_LINE1":"1 48644U 21044G   21264.63193462  .00001058  00000-0  89923-4 0  9995","DECAY_DATE":null,"TIME_SYSTEM":"UTC","SEMIMAJOR_AXIS":"6925.344","PERIAPSIS":"546.466","NORAD_CAT_ID":"48644","CLASSIFICATION_TYPE":"U","MEAN_ANOMALY":"296.2424"},{"ELEMENT_SET_NO":"999","INCLINATION":"53.0541","OBJECT_NAME":"STARLINK-2733","OBJECT_TYPE":"PAYLOAD","EPHEMERIS_TYPE":"0","FILE":"3122258","GP_ID":"185190333","MEAN_MOTION":"15.06398585","MEAN_MOTION_DDOT":"0.0000000000000","MEAN_MOTION_DOT":"-0.00000211","EPOCH":"2021-09-21T15:04:40.609920","REF_FRAME":"TEME","ARG_OF_PERICENTER":"53.9772","LAUNCH_DATE":"2021-05-26","ECCENTRICITY":"0.00010150","CENTER_NAME":"EARTH","SITE":"AFETR","MEAN_ELEMENT_THEORY":"SGP4","PERIOD":"95.592","APOAPSIS":"547.921","RCS_SIZE":"LARGE","REV_AT_EPOCH":"1802","OBJECT_ID":"2021-044H","TLE_LINE2":"2 48645  53.0541 239.2341 0001015  53.9772 306.1311 15.06398585 18027","BSTAR":"0.00000474680000","COUNTRY_CODE":"US","RA_OF_ASC_NODE":"239.2341","MEAN_ANOMALY":"306.1311","NORAD_CAT_ID":"48645","CLASSIFICATION_TYPE":"U","TIME_SYSTEM":"UTC","SEMIMAJOR_AXIS":"6925.353","PERIAPSIS":"546.515","DECAY_DATE":null,"TLE_LINE1":"1 48645U 21044H   21264.62824780 -.00000211  00000-0  47468-5 0  9999"},{"REV_AT_EPOCH":"1802","RCS_SIZE":"LARGE","APOAPSIS":"548.020","RA_OF_ASC_NODE":"239.2522","COUNTRY_CODE":"US","TLE_LINE2":"2 48646  53.0541 239.2522 0001137  45.2689 314.8392 15.06393854 18024","BSTAR":"0.00006066300000","OBJECT_ID":"2021-044J","PERIAPSIS":"546.445","SEMIMAJOR_AXIS":"6925.367","TIME_SYSTEM":"UTC","CLASSIFICATION_TYPE":"U","NORAD_CAT_ID":"48646","MEAN_ANOMALY":"314.8392","TLE_LINE1":"1 48646U 21044J   21264.62455789  .00000622  00000-0  60663-4 0  9995","DECAY_DATE":null,"EPHEMERIS_TYPE":"0","OBJECT_TYPE":"PAYLOAD","OBJECT_NAME":"STARLINK-2732","ELEMENT_SET_NO":"999","INCLINATION":"53.0541","ARG_OF_PERICENTER":"45.2689","EPOCH":"2021-09-21T14:59:21.801696","REF_FRAME":"TEME","MEAN_MOTION_DDOT":"0.0000000000000","MEAN_MOTION_DOT":"0.00000622","MEAN_MOTION":"15.06393854","GP_ID":"185190872","FILE":"3122258","CENTER_NAME":"EARTH","ECCENTRICITY":"0.00011370","LAUNCH_DATE":"2021-05-26","PERIOD":"95.593","MEAN_ELEMENT_THEORY":"SGP4","SITE":"AFETR"},{"EPHEMERIS_TYPE":"0","OBJECT_TYPE":"PAYLOAD","OBJECT_NAME":"STARLINK-2691","ELEMENT_SET_NO":"999","INCLINATION":"53.0549","ARG_OF_PERICENTER":"46.9541","MEAN_MOTION_DDOT":"0.0000000000000","MEAN_MOTION_DOT":"-0.00000720","REF_FRAME":"TEME","EPOCH":"2021-09-21T14:54:03.835872","GP_ID":"185190441","MEAN_MOTION":"15.06393779","FILE":"3122258","CENTER_NAME":"EARTH","ECCENTRICITY":"0.00007880","LAUNCH_DATE":"2021-05-26","PERIOD":"95.593","SITE":"AFETR","MEAN_ELEMENT_THEORY":"SGP4","REV_AT_EPOCH":"1802","RCS_SIZE":"LARGE","APOAPSIS":"547.778","COUNTRY_CODE":"US","RA_OF_ASC_NODE":"239.2741","BSTAR":"-0.00002950200000","TLE_LINE2":"2 48647  53.0549 239.2741 0000788  46.9541 313.1514 15.06393779 18026","OBJECT_ID":"2021-044K","TIME_SYSTEM":"UTC","SEMIMAJOR_AXIS":"6925.368","PERIAPSIS":"546.687","NORAD_CAT_ID":"48647","CLASSIFICATION_TYPE":"U","MEAN_ANOMALY":"313.1514","TLE_LINE1":"1 48647U 21044K   21264.62087773 -.00000720  00000-0 -29502-4 0  9998","DECAY_DATE":null},{"PERIOD":"95.592","SITE":"AFETR","MEAN_ELEMENT_THEORY":"SGP4","CENTER_NAME":"EARTH","ECCENTRICITY":"0.00010050","LAUNCH_DATE":"2021-05-26","ARG_OF_PERICENTER":"59.3233","EPOCH":"2021-09-21T08:30:33.259104","REF_FRAME":"TEME","MEAN_MOTION_DDOT":"0.0000000000000","MEAN_MOTION_DOT":"0.00001246","MEAN_MOTION":"15.06398160","GP_ID":"185159353","FILE":"3121847","EPHEMERIS_TYPE":"0","OBJECT_TYPE":"PAYLOAD","OBJECT_NAME":"STARLINK-2521","INCLINATION":"53.0549","ELEMENT_SET_NO":"999","TLE_LINE1":"1 48648U 21044L   21264.35455161  .00001246  00000-0  10253-3 0  9993","DECAY_DATE":null,"PERIAPSIS":"546.523","SEMIMAJOR_AXIS":"6925.354","TIME_SYSTEM":"UTC","CLASSIFICATION_TYPE":"U","NORAD_CAT_ID":"48648","MEAN_ANOMALY":"300.7855","RA_OF_ASC_NODE":"240.4665","COUNTRY_CODE":"US","TLE_LINE2":"2 48648  53.0549 240.4665 0001005  59.3233 300.7855 15.06398160 17988","BSTAR":"0.00010253000000","OBJECT_ID":"2021-044L","REV_AT_EPOCH":"1798","RCS_SIZE":"LARGE","APOAPSIS":"547.915"},{"COUNTRY_CODE":"US","RA_OF_ASC_NODE":"240.2092","TLE_LINE2":"2 48649  53.0496 240.2092 0001035  56.4707 303.6380 15.06394882 17981","BSTAR":"0.00010319000000","OBJECT_ID":"2021-044M","REV_AT_EPOCH":"1798","RCS_SIZE":"LARGE","APOAPSIS":"547.946","TLE_LINE1":"1 48649U 21044M   21264.41815773  .00001256  00000-0  10319-3 0  9994","DECAY_DATE":null,"SEMIMAJOR_AXIS":"6925.364","TIME_SYSTEM":"UTC","PERIAPSIS":"546.512","NORAD_CAT_ID":"48649","CLASSIFICATION_TYPE":"U","MEAN_ANOMALY":"303.6380","ARG_OF_PERICENTER":"56.4707","MEAN_MOTION_DOT":"0.00001256","MEAN_MOTION_DDOT":"0.0000000000000","REF_FRAME":"TEME","EPOCH":"2021-09-21T10:02:08.827872","GP_ID":"185159060","MEAN_MOTION":"15.06394882","FILE":"3121847","EPHEMERIS_TYPE":"0","OBJECT_TYPE":"PAYLOAD","OBJECT_NAME":"STARLINK-2673","ELEMENT_SET_NO":"999","INCLINATION":"53.0496","PERIOD":"95.592","SITE":"AFETR","MEAN_ELEMENT_THEORY":"SGP4","CENTER_NAME":"EARTH","ECCENTRICITY":"0.00010350","LAUNCH_DATE":"2021-05-26"}];
